[{"OBJECT_NAME":"HBTSS-SV1","OBJECT_ID":"2024-028F","EPOCH":"2026-03-09T23:05:25.846944","MEAN_MOTION":14.81553365,"ECCENTRICITY":0.00119303,"INCLINATION":39.9894,"RA_OF_ASC_NODE":316.1636,"ARG_OF_PERICENTER":238.589,"MEAN_ANOMALY":121.3729,"EPHEMERIS_TYPE":0,"CLASSIFICATION_TYPE":"U","NORAD_CAT_ID":58960,"ELEMENT_SET_NO":999,"REV_AT_EPOCH":9236,"BSTAR":0.00047571396,"MEAN_MOTION_DOT":3.673e-5,"MEAN_MOTION_DDOT":0},{"OBJECT_NAME":"GEESAT-3 02","OBJECT_ID":"2024-159B","EPOCH":"2026-03-09T22:45:04.115520","MEAN_MOTION":14.8381248,"ECCENTRICITY":0.00188552,"INCLINATION":49.9926,"RA_OF_ASC_NODE":183.54,"ARG_OF_PERICENTER":35.4495,"MEAN_ANOMALY":324.7693,"EPHEMERIS_TYPE":0,"CLASSIFICATION_TYPE":"U","NORAD_CAT_ID":61012,"ELEMENT_SET_NO":999,"REV_AT_EPOCH":8205,"BSTAR":0.00041202855,"MEAN_MOTION_DOT":3.232e-5,"MEAN_MOTION_DDOT":0}]
